{"type": "FeatureCollection", "features": [ {"type": "Feature", "properties": {"norad_id": 65304, "name": "DRAGON CRS-33", "group": "stations", "lat": -42.68472388418263, "lon": -15.35490299881344, "alt_km": 420.11870104891204, "timestamp": "2025-12-17T17:50:18.011929+00:00", "meta": {"OBJECT_NAME": "DRAGON CRS-33", "OBJECT_ID": "2025-186A", "EPOCH": "2025-12-17T01:19:48.717408", "MEAN_MOTION": 15.49629327, "ECCENTRICITY": 0.00031735, "INCLINATION": 51.6309, "RA_OF_ASC_NODE": 121.1077, "ARG_OF_PERICENTER": 260.4156, "MEAN_ANOMALY": 99.6474, "EPHEMERIS_TYPE": 0, "CLASSIFICATION_TYPE": "U", "NORAD_CAT_ID": 65304, "ELEMENT_SET_NO": 999, "REV_AT_EPOCH": 11, "BSTAR": 0.00014583435, "MEAN_MOTION_DOT": 7.77e-05, "MEAN_MOTION_DDOT": 0}, "tle": {"line1": "1 65304U 25186A   25351.05542497  .00007770  00000+0  14583-3 0  9996", "line2": "2 65304  51.6309 121.1077 0003173 260.4156  99.6474 15.49629327   110"}}, "geometry": {"type": "Point", "coordinates": [-15.35490299881344, -42.68472388418263]}}, {"type": "Feature", "properties": {"norad_id": 65586, "name": "PROGRESS-MS 32", "group": "stations", "lat": -42.684724609518156, "lon": -15.354901442250856, "alt_km": 420.118701057665, "timestamp": "2025-12-17T17:50:18.011950+00:00", "meta": {"OBJECT_NAME": "PROGRESS-MS 32", "OBJECT_ID": "2025-204A", "EPOCH": "2025-12-17T01:19:48.717408", "MEAN_MOTION": 15.49629327, "ECCENTRICITY": 0.00031735, "INCLINATION": 51.6309, "RA_OF_ASC_NODE": 121.1077, "ARG_OF_PERICENTER": 260.4156, "MEAN_ANOMALY": 99.6474, "EPHEMERIS_TYPE": 0, "CLASSIFICATION_TYPE": "U", "NORAD_CAT_ID": 65586, "ELEMENT_SET_NO": 999, "REV_AT_EPOCH": 27, "BSTAR": 0.00014583435, "MEAN_MOTION_DOT": 7.77e-05, "MEAN_MOTION_DDOT": 0}, "tle": {"line1": "1 65586U 25204A   25351.05542497  .00007770  00000+0  14583-3 0  9999", "line2": "2 65586  51.6309 121.1077 0003173 260.4156  99.6474 15.49629327   279"}}, "geometry": {"type": "Point", "coordinates": [-15.354901442250856, -42.684724609518156]}}, {"type": "Feature", "properties": {"norad_id": 65616, "name": "CYGNUS NG-23", "group": "stations", "lat": -42.68472530031414, "lon": -15.354899959809686, "alt_km": 420.1187010660042, "timestamp": "2025-12-17T17:50:18.011970+00:00", "meta": {"OBJECT_NAME": "CYGNUS NG-23", "OBJECT_ID": "2025-208A", "EPOCH": "2025-12-17T01:19:48.717408", "MEAN_MOTION": 15.49629327, "ECCENTRICITY": 0.00031735, "INCLINATION": 51.6309, "RA_OF_ASC_NODE": 121.1077, "ARG_OF_PERICENTER": 260.4156, "MEAN_ANOMALY": 99.6474, "EPHEMERIS_TYPE": 0, "CLASSIFICATION_TYPE": "U", "NORAD_CAT_ID": 65616, "ELEMENT_SET_NO": 999, "REV_AT_EPOCH": 22, "BSTAR": 0.00014583435, "MEAN_MOTION_DOT": 7.77e-05, "MEAN_MOTION_DDOT": 0}, "tle": {"line1": "1 65616U 25208A   25351.05542497  .00007770  00000+0  14583-3 0  9997", "line2": "2 65616  51.6309 121.1077 0003173 260.4156  99.6474 15.49629327   228"}}, "geometry": {"type": "Point", "coordinates": [-15.354899959809686, -42.68472530031414]}}, {"type": "Feature", "properties": {"norad_id": 65729, "name": "DRAGONFLY", "group": "stations", "lat": -51.17515758576985, "lon": 30.11787395489871, "alt_km": 349.21412816315205, "timestamp": "2025-12-17T17:50:18.011990+00:00", "meta": {"OBJECT_NAME": "DRAGONFLY", "OBJECT_ID": "1998-067XH", "EPOCH": "2025-12-16T13:13:48.986688", "MEAN_MOTION": 15.7319978, "ECCENTRICITY": 0.00071179, "INCLINATION": 51.6242, "RA_OF_ASC_NODE": 116.2265, "ARG_OF_PERICENTER": 302.756, "MEAN_ANOMALY": 57.2752, "EPHEMERIS_TYPE": 0, "CLASSIFICATION_TYPE": "U", "NORAD_CAT_ID": 65729, "ELEMENT_SET_NO": 999, "REV_AT_EPOCH": 1376, "BSTAR": 0.0010910742, "MEAN_MOTION_DOT": 0.00155828, "MEAN_MOTION_DDOT": 0}, "tle": {"line1": "1 65729U 98067XH  25350.55126142  .00155828  00000+0  10911-2 0  9992", "line2": "2 65729  51.6242 116.2265 0007117 302.7560  57.2752 15.73199780 13768"}}, "geometry": {"type": "Point", "coordinates": [30.11787395489871, -51.17515758576985]}}, {"type": "Feature", "properties": {"norad_id": 65731, "name": "1998-067XK", "group": "stations", "lat": -1.8807006260052104, "lon": -66.68200208592816, "alt_km": 369.6810040462851, "timestamp": "2025-12-17T17:50:18.012011+00:00", "meta": {"OBJECT_NAME": "1998-067XK", "OBJECT_ID": "1998-067XK", "EPOCH": "2025-12-17T07:52:39.640512", "MEAN_MOTION": 15.66619236, "ECCENTRICITY": 0.0004756, "INCLINATION": 51.6284, "RA_OF_ASC_NODE": 113.9366, "ARG_OF_PERICENTER": 276.4225, "MEAN_ANOMALY": 83.6229, "EPHEMERIS_TYPE": 0, "CLASSIFICATION_TYPE": "U", "NORAD_CAT_ID": 65731, "ELEMENT_SET_NO": 999, "REV_AT_EPOCH": 1386, "BSTAR": 0.00081077835, "MEAN_MOTION_DOT": 0.00087081, "MEAN_MOTION_DDOT": 0}, "tle": {"line1": "1 65731U 98067XK  25351.32823658  .00087081  00000+0  81078-3 0  9995", "line2": "2 65731  51.6284 113.9366 0004756 276.4225  83.6229 15.66619236 13862"}}, "geometry": {"type": "Point", "coordinates": [-66.68200208592816, -1.8807006260052104]}}, {"type": "Feature", "properties": {"norad_id": 65732, "name": "RSP-03", "group": "stations", "lat": -22.81725239934033, "lon": -49.519612773378576, "alt_km": 361.2397306063431, "timestamp": "2025-12-17T17:50:18.012026+00:00", "meta": {"OBJECT_NAME": "RSP-03", "OBJECT_ID": "1998-067XL", "EPOCH": "2025-12-16T14:58:29.275680", "MEAN_MOTION": 15.69615447, "ECCENTRICITY": 0.00056224, "INCLINATION": 51.6264, "RA_OF_ASC_NODE": 116.7219, "ARG_OF_PERICENTER": 277.262, "MEAN_ANOMALY": 82.7738, "EPHEMERIS_TYPE": 0, "CLASSIFICATION_TYPE": "U", "NORAD_CAT_ID": 65732, "ELEMENT_SET_NO": 999, "REV_AT_EPOCH": 1377, "BSTAR": 0.00094839264, "MEAN_MOTION_DOT": 0.00115729, "MEAN_MOTION_DDOT": 0}, "tle": {"line1": "1 65732U 98067XL  25350.62394995  .00115729  00000+0  94839-3 0  9995", "line2": "2 65732  51.6264 116.7219 0005622 277.2620  82.7738 15.69615447 13778"}}, "geometry": {"type": "Point", "coordinates": [-49.519612773378576, -22.81725239934033]}}, {"type": "Feature", "properties": {"norad_id": 65733, "name": "GHS-01", "group": "stations", "lat": -46.38143393793096, "lon": -14.316039255897314, "alt_km": 341.2388691380529, "timestamp": "2025-12-17T17:50:18.012042+00:00", "meta": {"OBJECT_NAME": "GHS-01", "OBJECT_ID": "1998-067XM", "EPOCH": "2025-12-17T01:34:57.772416", "MEAN_MOTION": 15.7670504, "ECCENTRICITY": 0.00077979, "INCLINATION": 51.6275, "RA_OF_ASC_NODE": 112.9208, "ARG_OF_PERICENTER": 309.7819, "MEAN_ANOMALY": 50.2494, "EPHEMERIS_TYPE": 0, "CLASSIFICATION_TYPE": "U", "NORAD_CAT_ID": 65733, "ELEMENT_SET_NO": 999, "REV_AT_EPOCH": 1386, "BSTAR": 0.0011963586, "MEAN_MOTION_DOT": 0.00200259, "MEAN_MOTION_DDOT": 0}, "tle": {"line1": "1 65733U 98067XM  25351.06594644  .00200259  00000+0  11964-2 0  9998", "line2": "2 65733  51.6275 112.9208 0007797 309.7819  50.2494 15.76705040 13869"}}, "geometry": {"type": "Point", "coordinates": [-14.316039255897314, -46.38143393793096]}}, {"type": "Feature", "properties": {"norad_id": 65941, "name": "YOTSUBA-KULOVER", "group": "stations", "lat": -5.825749890850199, "lon": -60.55005389851857, "alt_km": 389.10877804393294, "timestamp": "2025-12-17T17:50:18.012063+00:00", "meta": {"OBJECT_NAME": "YOTSUBA-KULOVER", "OBJECT_ID": "1998-067XN", "EPOCH": "2025-12-16T14:54:10.853280", "MEAN_MOTION": 15.59985033, "ECCENTRICITY": 0.00014592, "INCLINATION": 51.6282, "RA_OF_ASC_NODE": 120.4613, "ARG_OF_PERICENTER": 292.17, "MEAN_ANOMALY": 67.9139, "EPHEMERIS_TYPE": 0, "CLASSIFICATION_TYPE": "U", "NORAD_CAT_ID": 65941, "ELEMENT_SET_NO": 999, "REV_AT_EPOCH": 1046, "BSTAR": 0.00069919558, "MEAN_MOTION_DOT": 0.00057497, "MEAN_MOTION_DDOT": 0}, "tle": {"line1": "1 65941U 98067XN  25350.62095895  .00057497  00000+0  69920-3 0  9994", "line2": "2 65941  51.6282 120.4613 0001459 292.1700  67.9139 15.59985033 10462"}}, "geometry": {"type": "Point", "coordinates": [-60.55005389851857, -5.825749890850199]}}, {"type": "Feature", "properties": {"norad_id": 65942, "name": "BOTAN", "group": "stations", "lat": -31.12606072260548, "lon": -37.41986937082798, "alt_km": 379.05186736933865, "timestamp": "2025-12-17T17:50:18.012087+00:00", "meta": {"OBJECT_NAME": "BOTAN", "OBJECT_ID": "1998-067XP", "EPOCH": "2025-12-17T01:33:35.223264", "MEAN_MOTION": 15.63787081, "ECCENTRICITY": 0.00028324, "INCLINATION": 51.6279, "RA_OF_ASC_NODE": 117.4271, "ARG_OF_PERICENTER": 275.6508, "MEAN_ANOMALY": 84.4163, "EPHEMERIS_TYPE": 0, "CLASSIFICATION_TYPE": "U", "NORAD_CAT_ID": 65942, "ELEMENT_SET_NO": 999, "REV_AT_EPOCH": 1054, "BSTAR": 0.0010066174, "MEAN_MOTION_DOT": 0.00096733, "MEAN_MOTION_DDOT": 0}, "tle": {"line1": "1 65942U 98067XP  25351.06499101  .00096733  00000+0  10066-2 0  9994", "line2": "2 65942  51.6279 117.4271 0002832 275.6508  84.4163 15.63787081 10541"}}, "geometry": {"type": "Point", "coordinates": [-37.41986937082798, -31.12606072260548]}}, {"type": "Feature", "properties": {"norad_id": 65943, "name": "E-KAGAKU-1", "group": "stations", "lat": -5.277717143844256, "lon": -60.98646785729865, "alt_km": 388.05947594655663, "timestamp": "2025-12-17T17:50:18.012122+00:00", "meta": {"OBJECT_NAME": "E-KAGAKU-1", "OBJECT_ID": "1998-067XQ", "EPOCH": "2025-12-15T15:50:32.577792", "MEAN_MOTION": 15.59851021, "ECCENTRICITY": 0.00016366, "INCLINATION": 51.6292, "RA_OF_ASC_NODE": 125.299, "ARG_OF_PERICENTER": 221.4661, "MEAN_ANOMALY": 138.6208, "EPHEMERIS_TYPE": 0, "CLASSIFICATION_TYPE": "U", "NORAD_CAT_ID": 65943, "ELEMENT_SET_NO": 999, "REV_AT_EPOCH": 1031, "BSTAR": 0.0006409113, "MEAN_MOTION_DOT": 0.00052357, "MEAN_MOTION_DDOT": 0}, "tle": {"line1": "1 65943U 98067XQ  25349.66009928  .00052357  00000+0  64091-3 0  9994", "line2": "2 65943  51.6292 125.2990 0001636 221.4661 138.6208 15.59851021 10310"}}, "geometry": {"type": "Point", "coordinates": [-60.98646785729865, -5.277717143844256]}}]}